start=new Date('2021-12-02T00:00:00.000Z').valueOf();
sats=[{"EPHEMERIS_TYPE":"0","TIME_SYSTEM":"UTC","CLASSIFICATION_TYPE":"U","LAUNCH_DATE":"2021-05-09","CENTER_NAME":"EARTH","INCLINATION":"53.0567","MEAN_MOTION":"15.06406790","NORAD_CAT_ID":"48487","FILE":"3229337","SEMIMAJOR_AXIS":"6925.328","DECAY_DATE":null,"PERIOD":"95.592","REV_AT_EPOCH":"3262","RCS_SIZE":"LARGE","PERIAPSIS":"546.207","GP_ID":"190866552","OBJECT_ID":"2021-040BM","MEAN_ELEMENT_THEORY":"SGP4","APOAPSIS":"548.178","OBJECT_TYPE":"PAYLOAD","OBJECT_NAME":"STARLINK-2494","MEAN_MOTION_DOT":"0.00003018","TLE_LINE2":"2 48487  53.0567   1.1762 0001423  66.3027 293.8111 15.06406790 32626","EPOCH":"2021-12-01T11:35:35.336832","REF_FRAME":"TEME","MEAN_MOTION_DDOT":"0.0000000000000","MEAN_ANOMALY":"293.8111","COUNTRY_CODE":"US","TLE_LINE1":"1 48487U 21040BM  21335.48304788  .00003018  00000-0  22137-3 0  9994","SITE":"AFETR","ELEMENT_SET_NO":"999","RA_OF_ASC_NODE":"1.1762","BSTAR":"0.00022137000000","ARG_OF_PERICENTER":"66.3027","ECCENTRICITY":"0.00014230"},{"INCLINATION":"53.0557","NORAD_CAT_ID":"48553","MEAN_MOTION":"15.06390589","EPHEMERIS_TYPE":"0","CENTER_NAME":"EARTH","CLASSIFICATION_TYPE":"U","TIME_SYSTEM":"UTC","LAUNCH_DATE":"2021-05-15","OBJECT_ID":"2021-041A","OBJECT_NAME":"STARLINK-2063","MEAN_ELEMENT_THEORY":"SGP4","APOAPSIS":"548.745","OBJECT_TYPE":"PAYLOAD","FILE":"3229140","PERIOD":"95.593","DECAY_DATE":null,"SEMIMAJOR_AXIS":"6925.377","REV_AT_EPOCH":"3016","RCS_SIZE":"LARGE","GP_ID":"190861673","PERIAPSIS":"545.740","MEAN_ANOMALY":"314.0351","MEAN_MOTION_DDOT":"0.0000000000000","MEAN_MOTION_DOT":"-0.00000826","REF_FRAME":"TEME","TLE_LINE2":"2 48553  53.0557 292.1692 0002170  46.0817 314.0351 15.06390589 30162","EPOCH":"2021-12-01T06:15:48.477600","BSTAR":"-0.00003657200000","ARG_OF_PERICENTER":"46.0817","ECCENTRICITY":"0.00021700","SITE":"AFETR","COUNTRY_CODE":"US","TLE_LINE1":"1 48553U 21041A   21335.26097775 -.00000826  00000-0 -36572-4 0  9995","ELEMENT_SET_NO":"999","RA_OF_ASC_NODE":"292.1692"},{"FILE":"3229288","PERIOD":"95.593","DECAY_DATE":null,"SEMIMAJOR_AXIS":"6925.375","REV_AT_EPOCH":"3061","RCS_SIZE":"LARGE","PERIAPSIS":"545.603","GP_ID":"190865335","OBJECT_ID":"2021-041B","MEAN_ELEMENT_THEORY":"SGP4","APOAPSIS":"548.876","OBJECT_TYPE":"PAYLOAD","OBJECT_NAME":"STARLINK-2139","EPHEMERIS_TYPE":"0","TIME_SYSTEM":"UTC","CLASSIFICATION_TYPE":"U","LAUNCH_DATE":"2021-05-15","CENTER_NAME":"EARTH","INCLINATION":"53.0553","MEAN_MOTION":"15.06391437","NORAD_CAT_ID":"48554","COUNTRY_CODE":"US","TLE_LINE1":"1 48554U 21041B   21335.60008653 -.00001474  00000-0 -80064-4 0  9996","SITE":"AFETR","ELEMENT_SET_NO":"999","RA_OF_ASC_NODE":"290.6508","BSTAR":"-0.00008006400000","ECCENTRICITY":"0.00023630","ARG_OF_PERICENTER":"53.7818","MEAN_MOTION_DOT":"-0.00001474","EPOCH":"2021-12-01T14:24:07.476192","TLE_LINE2":"2 48554  53.0553 290.6508 0002363  53.7818 306.3389 15.06391437 30616","REF_FRAME":"TEME","MEAN_MOTION_DDOT":"0.0000000000000","MEAN_ANOMALY":"306.3389"},{"NORAD_CAT_ID":"48555","MEAN_MOTION":"15.06391736","INCLINATION":"53.0565","CENTER_NAME":"EARTH","TIME_SYSTEM":"UTC","CLASSIFICATION_TYPE":"U","LAUNCH_DATE":"2021-05-15","EPHEMERIS_TYPE":"0","OBJECT_NAME":"STARLINK-2145","MEAN_ELEMENT_THEORY":"SGP4","APOAPSIS":"548.600","OBJECT_TYPE":"PAYLOAD","OBJECT_ID":"2021-041C","GP_ID":"190865340","PERIAPSIS":"545.878","DECAY_DATE":null,"FILE":"3229291","PERIOD":"95.593","SEMIMAJOR_AXIS":"6925.374","RCS_SIZE":"LARGE","REV_AT_EPOCH":"3052","MEAN_ANOMALY":"303.5843","MEAN_MOTION_DDOT":"0.0000000000000","REF_FRAME":"TEME","TLE_LINE2":"2 48555  53.0565 300.5171 0001965  56.5333 303.5843 15.06391736 30523","EPOCH":"2021-12-01T15:05:15.561312","MEAN_MOTION_DOT":"-0.00001165","ECCENTRICITY":"0.00019650","ARG_OF_PERICENTER":"56.5333","BSTAR":"-0.00005933700000","ELEMENT_SET_NO":"999","RA_OF_ASC_NODE":"300.5171","SITE":"AFETR","COUNTRY_CODE":"US","TLE_LINE1":"1 48555U 21041C   21335.62865233 -.00001165  00000-0 -59337-4 0  9990"},{"CENTER_NAME":"EARTH","CLASSIFICATION_TYPE":"U","TIME_SYSTEM":"UTC","LAUNCH_DATE":"2021-05-15","EPHEMERIS_TYPE":"0","MEAN_MOTION":"15.06439801","NORAD_CAT_ID":"48556","INCLINATION":"53.0581","GP_ID":"190865341","PERIAPSIS":"545.657","DECAY_DATE":null,"FILE":"3229291","PERIOD":"95.590","SEMIMAJOR_AXIS":"6925.227","REV_AT_EPOCH":"3052","RCS_SIZE":"LARGE","OBJECT_NAME":"STARLINK-2151","MEAN_ELEMENT_THEORY":"SGP4","APOAPSIS":"548.526","OBJECT_TYPE":"PAYLOAD","OBJECT_ID":"2021-041D","REF_FRAME":"TEME","TLE_LINE2":"2 48556  53.0581 300.5598 0002072  82.0561 278.0663 15.06439801 30524","EPOCH":"2021-12-01T14:49:18.672672","MEAN_MOTION_DOT":"-0.00010559","MEAN_ANOMALY":"278.0663","MEAN_MOTION_DDOT":"0.0000000000000","RA_OF_ASC_NODE":"300.5598","ELEMENT_SET_NO":"999","SITE":"AFETR","COUNTRY_CODE":"US","TLE_LINE1":"1 48556U 21041D   21335.61757723 -.00010559  00000-0 -69023-3 0  9993","ARG_OF_PERICENTER":"82.0561","ECCENTRICITY":"0.00020720","BSTAR":"-0.00069023000000"},{"OBJECT_ID":"2021-041E","OBJECT_NAME":"STARLINK-2155","APOAPSIS":"548.732","MEAN_ELEMENT_THEORY":"SGP4","OBJECT_TYPE":"PAYLOAD","DECAY_DATE":null,"FILE":"3229140","PERIOD":"95.592","SEMIMAJOR_AXIS":"6925.361","RCS_SIZE":"LARGE","REV_AT_EPOCH":"3016","GP_ID":"190861974","PERIAPSIS":"545.719","INCLINATION":"53.0564","NORAD_CAT_ID":"48557","MEAN_MOTION":"15.06396068","EPHEMERIS_TYPE":"0","CENTER_NAME":"EARTH","TIME_SYSTEM":"UTC","CLASSIFICATION_TYPE":"U","LAUNCH_DATE":"2021-05-15","BSTAR":"-0.00006051000000","ARG_OF_PERICENTER":"56.0504","ECCENTRICITY":"0.00021750","SITE":"AFETR","COUNTRY_CODE":"US","TLE_LINE1":"1 48557U 21041E   21335.29046096 -.00001183  00000-0 -60510-4 0  9998","RA_OF_ASC_NODE":"292.0449","ELEMENT_SET_NO":"999","MEAN_ANOMALY":"304.0692","MEAN_MOTION_DDOT":"0.0000000000000","MEAN_MOTION_DOT":"-0.00001183","REF_FRAME":"TEME","TLE_LINE2":"2 48557  53.0564 292.0449 0002175  56.0504 304.0692 15.06396068 30167","EPOCH":"2021-12-01T06:58:15.826944"},{"MEAN_MOTION_DOT":"-0.00001267","EPOCH":"2021-12-01T14:50:39.667488","TLE_LINE2":"2 48558  53.0552 290.5648 0001713  61.6759 298.4403 15.06392240 30614","REF_FRAME":"TEME","MEAN_MOTION_DDOT":"0.0000000000000","MEAN_ANOMALY":"298.4403","TLE_LINE1":"1 48558U 21041F   21335.61851467 -.00001267  00000-0 -66208-4 0  9994","COUNTRY_CODE":"US","SITE":"AFETR","ELEMENT_SET_NO":"999","RA_OF_ASC_NODE":"290.5648","BSTAR":"-0.00006620800000","ECCENTRICITY":"0.00017130","ARG_OF_PERICENTER":"61.6759","EPHEMERIS_TYPE":"0","LAUNCH_DATE":"2021-05-15","TIME_SYSTEM":"UTC","CLASSIFICATION_TYPE":"U","CENTER_NAME":"EARTH","INCLINATION":"53.0552","MEAN_MOTION":"15.06392240","NORAD_CAT_ID":"48558","REV_AT_EPOCH":"3061","RCS_SIZE":"LARGE","FILE":"3229302","DECAY_DATE":null,"PERIOD":"95.593","SEMIMAJOR_AXIS":"6925.372","PERIAPSIS":"546.051","GP_ID":"190866007","OBJECT_ID":"2021-041F","OBJECT_TYPE":"PAYLOAD","MEAN_ELEMENT_THEORY":"SGP4","APOAPSIS":"548.424","OBJECT_NAME":"STARLINK-2166"},{"GP_ID":"190862574","PERIAPSIS":"545.955","RCS_SIZE":"LARGE","REV_AT_EPOCH":"3015","DECAY_DATE":null,"FILE":"3229140","PERIOD":"95.592","SEMIMAJOR_AXIS":"6925.365","OBJECT_NAME":"STARLINK-2167","OBJECT_TYPE":"PAYLOAD","MEAN_ELEMENT_THEORY":"SGP4","APOAPSIS":"548.505","OBJECT_ID":"2021-041G","CENTER_NAME":"EARTH","LAUNCH_DATE":"2021-05-15","CLASSIFICATION_TYPE":"U","TIME_SYSTEM":"UTC","EPHEMERIS_TYPE":"0","MEAN_MOTION":"15.06394605","NORAD_CAT_ID":"48559","INCLINATION":"53.0520","ELEMENT_SET_NO":"999","RA_OF_ASC_NODE":"292.1851","SITE":"AFETR","TLE_LINE1":"1 48559U 21041G   21335.25634514  .00000571  00000-0  57222-4 0  9998","COUNTRY_CODE":"US","ARG_OF_PERICENTER":"59.1430","ECCENTRICITY":"0.00018410","BSTAR":"0.00005722200000","REF_FRAME":"TEME","TLE_LINE2":"2 48559  53.0520 292.1851 0001841  59.1430 300.9740 15.06394605 30153","EPOCH":"2021-12-01T06:09:08.220096","MEAN_MOTION_DOT":"0.00000571","MEAN_ANOMALY":"300.9740","MEAN_MOTION_DDOT":"0.0000000000000"},{"REF_FRAME":"TEME","TLE_LINE2":"2 48560  53.0510 284.4239 0003149  41.1937 318.9310 15.53000193 30750","EPOCH":"2021-12-01T19:57:58.995648","MEAN_MOTION_DOT":"0.00485702","MEAN_ANOMALY":"318.9310","MEAN_MOTION_DDOT":"0.0000000000000","RA_OF_ASC_NODE":"284.4239","ELEMENT_SET_NO":"999","SITE":"AFETR","TLE_LINE1":"1 48560U 21041H   21335.83193282  .00485702  00000-0  72010-2 0  9999","COUNTRY_CODE":"US","ARG_OF_PERICENTER":"41.1937","ECCENTRICITY":"0.00031490","BSTAR":"0.00720100000000","CENTER_NAME":"EARTH","LAUNCH_DATE":"2021-05-15","TIME_SYSTEM":"UTC","CLASSIFICATION_TYPE":"U","EPHEMERIS_TYPE":"0","MEAN_MOTION":"15.53000193","NORAD_CAT_ID":"48560","INCLINATION":"53.0510","GP_ID":"190865592","PERIAPSIS":"405.837","REV_AT_EPOCH":"3075","RCS_SIZE":"MEDIUM","FILE":"3229302","DECAY_DATE":null,"PERIOD":"92.724","SEMIMAJOR_AXIS":"6786.109","OBJECT_NAME":"STARLINK-2173","OBJECT_TYPE":"PAYLOAD","APOAPSIS":"410.111","MEAN_ELEMENT_THEORY":"SGP4","OBJECT_ID":"2021-041H"},{"EPHEMERIS_TYPE":"0","CLASSIFICATION_TYPE":"U","TIME_SYSTEM":"UTC","LAUNCH_DATE":"2021-05-15","CENTER_NAME":"EARTH","INCLINATION":"53.0567","NORAD_CAT_ID":"48561","MEAN_MOTION":"15.06417718","FILE":"3229306","DECAY_DATE":null,"PERIOD":"95.591","SEMIMAJOR_AXIS":"6925.294","REV_AT_EPOCH":"3108","RCS_SIZE":"LARGE","PERIAPSIS":"545.076","GP_ID":"190865652","OBJECT_ID":"2021-041J","MEAN_ELEMENT_THEORY":"SGP4","APOAPSIS":"549.242","OBJECT_TYPE":"PAYLOAD","OBJECT_NAME":"STARLINK-2186","MEAN_MOTION_DOT":"-0.00025841","TLE_LINE2":"2 48561  53.0567 259.2208 0003008  61.0302 347.0756 15.06417718 31087","EPOCH":"2021-12-01T22:00:00.999936","REF_FRAME":"TEME","MEAN_MOTION_DDOT":"0.0000000000000","MEAN_ANOMALY":"347.0756","COUNTRY_CODE":"US","TLE_LINE1":"1 48561U 21041J   21335.91667824 -.00025841  00000-0 -17212-2 0  9996","SITE":"AFETR","ELEMENT_SET_NO":"999","RA_OF_ASC_NODE":"259.2208","BSTAR":"-0.00172120000000","ECCENTRICITY":"0.00030080","ARG_OF_PERICENTER":"61.0302"}];
